CCSDS_OMM_VERS = 2.0
CREATION_DATE  = 
ORIGINATOR     = 

OBJECT_NAME    = XRISM
OBJECT_ID      = 2023-137A
CENTER_NAME    = EARTH
REF_FRAME      = TEME
TIME_SYSTEM    = UTC
MEAN_ELEMENT_THEORY = SGP/SGP4

EPOCH          = 2026-03-12T13:06:33.540192
MEAN_MOTION    = 15.11535288
ECCENTRICITY   = .00079125
INCLINATION    = 31.0011
RA_OF_ASC_NODE = 265.1873
ARG_OF_PERICENTER = 67.5653
MEAN_ANOMALY   = 292.5823

EPHEMERIS_TYPE = 0
CLASSIFICATION_TYPE = U
NORAD_CAT_ID   = 57800
ELEMENT_SET_NO = 999
REV_AT_EPOCH   = 13822
BSTAR          = .31566156E-3
MEAN_MOTION_DOT = .5584E-4
MEAN_MOTION_DDOT = 0

CCSDS_OMM_VERS = 2.0
CREATION_DATE  = 
ORIGINATOR     = 

OBJECT_NAME    = ACS3
OBJECT_ID      = 2024-077B
CENTER_NAME    = EARTH
REF_FRAME      = TEME
TIME_SYSTEM    = UTC
MEAN_ELEMENT_THEORY = SGP/SGP4

EPOCH          = 2026-03-12T14:15:21.459168
MEAN_MOTION    = 13.89752308
ECCENTRICITY   = .00621574
INCLINATION    = 97.2052
RA_OF_ASC_NODE = 12.0527
ARG_OF_PERICENTER = 69.5403
MEAN_ANOMALY   = 291.2420

EPHEMERIS_TYPE = 0
CLASSIFICATION_TYPE = U
NORAD_CAT_ID   = 59588
ELEMENT_SET_NO = 999
REV_AT_EPOCH   = 9460
BSTAR          = .19767773E-1
MEAN_MOTION_DOT = .2469E-3
MEAN_MOTION_DDOT = 0

CCSDS_OMM_VERS = 2.0
CREATION_DATE  = 
ORIGINATOR     = 

OBJECT_NAME    = SZ-21 MODULE
OBJECT_ID      = 2025-246C
CENTER_NAME    = EARTH
REF_FRAME      = TEME
TIME_SYSTEM    = UTC
MEAN_ELEMENT_THEORY = SGP/SGP4

EPOCH          = 2026-03-12T08:46:08.876928
MEAN_MOTION    = 15.68778467
ECCENTRICITY   = .00011655
INCLINATION    = 41.4732
RA_OF_ASC_NODE = 186.8865
ARG_OF_PERICENTER = 305.7907
MEAN_ANOMALY   = 54.2827

EPHEMERIS_TYPE = 0
CLASSIFICATION_TYPE = U
NORAD_CAT_ID   = 66515
ELEMENT_SET_NO = 999
REV_AT_EPOCH   = 1849
BSTAR          = .34954185E-3
MEAN_MOTION_DOT = .41043E-3
MEAN_MOTION_DDOT = 0

