XRISM                   
1 57800U 23137A   26071.54622153  .00005584  00000+0  31566-3 0  9995
2 57800  31.0011 265.1873 0007912  67.5653 292.5823 15.11535288138227
ACS3                    
1 59588U 24077B   26071.59399837  .00024690  00000+0  19768-1 0  9996
2 59588  97.2052  12.0527 0062157  69.5403 291.2420 13.89752308 94602
SZ-21 MODULE            
1 66515U 25246C   26071.36538052  .00041043  00000+0  34954-3 0  9999
2 66515  41.4732 186.8865 0001165 305.7907  54.2827 15.68778467 18491
